49750,STARLINK-3236,2021,95.44,260.0,+,53.22,Active,1,LEO,USA,USA,Commercial,Communications,Falcon,1 49750U 21115AC  25251.23621485 -.00000812  00000+0 -32921-4 0  9994,2 49750  53.2172 248.1969 0001402  90.8197 269.2956 15.08833264207993,15.08833264,0.0001402,LEO
49751,STARLINK-3229,2021,95.44,260.0,+,53.22,Active,1,LEO,USA,USA,Commercial,Communications,Falcon,1 49751U 21115AD  25251.28308429 -.00000349  00000+0 -38090-5 0  9999,2 49751  53.2161 247.9005 0001300  80.1476 279.9663 15.08837854208004,15.08837854,0.00013,LEO
49752,STARLINK-3209,2021,95.44,260.0,+,53.22,Active,1,LEO,USA,USA,Commercial,Communications,Falcon,1 49752U 21115AE  25251.25185915  .00001455  00000+0  10951-3 0  9991,2 49752  53.2161 238.1279 0001243  82.3079 277.8054 15.08840490208134,15.0884049,0.0001243,LEO
49753,STARLINK-3200,2021,95.44,260.0,+,53.22,Active,1,LEO,USA,USA,Commercial,Communications,Falcon,1 49753U 21115AF  25251.23158225 -.00001868  00000+0 -99303-4 0  9993,2 49753  53.2165 248.2090 0001367  95.0908 265.0241 15.08834225207990,15.08834225,0.0001367,LEO
49754,STARLINK-3193,2021,95.44,260.0,+,53.22,Active,1,LEO,USA,USA,Commercial,Communications,Falcon,1 49754U 21115AG  25251.25459008 -.00000842  00000+0 -34799-4 0  9998,2 49754  53.2164 238.2095 0001437  90.8087 269.3070 15.08831452208136,15.08831452,0.0001437,LEO
49755,STARLINK-3210,2021,95.44,260.0,+,53.22,Active,1,LEO,USA,USA,Commercial,Communications,Falcon,1 49755U 21115AH  25251.24357619  .00000063  00000+0  22070-4 0  9995,2 49755  53.2167 248.2036 0001319  91.3607 268.7536 15.08840223207998,15.08840223,0.0001319,LEO
49756,STARLINK-3207,2021,95.44,260.0,+,53.22,Active,1,LEO,USA,USA,Commercial,Communications,Falcon,1 49756U 21115AJ  25251.26194300 -.00001525  00000+0 -77784-4 0  9992,2 49756  53.2168 238.0737 0001340  87.4275 272.6871 15.08824584208131,15.08824584,0.000134,LEO
49757,STARLINK-3197,2021,95.44,260.0,+,53.22,Active,1,LEO,USA,USA,Commercial,Communications,Falcon,1 49757U 21115AK  25251.25553016 -.00000135  00000+0  95950-5 0  9996,2 49757  53.2161 238.1110 0001374  89.7033 270.4117 15.08836707208134,15.08836707,0.0001374,LEO
49758,STARLINK-3194,2021,95.44,260.0,+,53.22,Active,1,LEO,USA,USA,Commercial,Communications,Falcon,1 49758U 21115AL  25251.26930198 -.00001545  00000+0 -79042-4 0  9998,2 49758  53.2158 238.0401 0001342  89.7039 270.4107 15.08825583208133,15.08825583,0.0001342,LEO
49759,STARLINK-3204,2021,95.44,260.0,+,53.22,Active,1,LEO,USA,USA,Commercial,Communications,Falcon,1 49759U 21115AM  25251.25825368 -.00000249  00000+0  24390-5 0  9996,2 49759  53.2155 238.0884 0001326  84.7222 275.3921 15.08833713208139,15.08833713,0.0001326,LEO
49760,STARLINK-3199,2021,95.44,260.0,+,53.22,Active,1,LEO,USA,USA,Commercial,Communications,Falcon,1 49760U 21115AN  25251.21041239 -.00000903  00000+0 -38643-4 0  9994,2 49760  53.2164 238.3035 0001216  95.7437 264.3694 15.08841224208131,15.08841224,0.0001216,LEO
49761,STARLINK-3203,2021,95.44,260.0,+,53.22,Active,1,LEO,USA,USA,Commercial,Communications,Falcon,1 49761U 21115AP  25251.26561833 -.00001239  00000+0 -59798-4 0  9994,2 49761  53.2164 238.0566 0001325  90.2224 269.8920 15.08828410208137,15.0882841,0.0001325,LEO
49762,STARLINK-3195,2021,95.44,260.0,+,53.22,Active,1,LEO,USA,USA,Commercial,Communications,Falcon,1 49762U 21115AQ  25251.21777829 -.00000555  00000+0 -16796-4 0  9995,2 49762  53.2164 238.2683 0001341  90.0764 270.0382 15.08832194208135,15.08832194,0.0001341,LEO
49763,STARLINK-3198,2021,95.44,260.0,+,53.22,Active,1,LEO,USA,USA,Commercial,Communications,Falcon,1 49763U 21115AR  25251.20673609 -.00000385  00000+0 -61105-5 0  9992,2 49763  53.2171 238.3197 0001357  90.5710 269.5437 15.08833626208133,15.08833626,0.0001357,LEO
49765,STARLINK-3227,2021,95.44,260.0,+,53.22,Active,1,LEO,USA,USA,Commercial,Communications,Falcon,1 49765U 21115AT  25251.21505550 -.00001147  00000+0 -54003-4 0  9999,2 49765  53.2167 238.2932 0000994  91.6556 268.4551 15.08833138208135,15.08833138,9.94e-05,LEO
49766,STARLINK-3190,2021,95.44,260.0,+,53.22,Active,1,LEO,USA,USA,Commercial,Communications,Falcon,1 49766U 21115AU  25251.22977419  .00001725  00000+0  12639-3 0  9996,2 49766  53.2166 238.2260 0001644  78.6850 281.4327 15.08850352208137,15.08850352,0.0001644,LEO
