[{"OBJECT_NAME":"STARLINK-3236","OBJECT_ID":"2021-115AC","EPOCH":"2025-09-08T05:40:08.963040","MEAN_MOTION":15.08833264,"ECCENTRICITY":0.00014022,"INCLINATION":53.2172,"RA_OF_ASC_NODE":248.1969,"ARG_OF_PERICENTER":90.8197,"MEAN_ANOMALY":269.2956,"EPHEMERIS_TYPE":0,"CLASSIFICATION_TYPE":"U","NORAD_CAT_ID":49750,"ELEMENT_SET_NO":999,"REV_AT_EPOCH":20799,"BSTAR":-3.292111e-5,"MEAN_MOTION_DOT":-8.12e-6,"MEAN_MOTION_DDOT":0},{"OBJECT_NAME":"STARLINK-3229","OBJECT_ID":"2021-115AD","EPOCH":"2025-09-08T06:47:38.482656","MEAN_MOTION":15.08837854,"ECCENTRICITY":0.00013007,"INCLINATION":53.2161,"RA_OF_ASC_NODE":247.9005,"ARG_OF_PERICENTER":80.1476,"MEAN_ANOMALY":279.9663,"EPHEMERIS_TYPE":0,"CLASSIFICATION_TYPE":"U","NORAD_CAT_ID":49751,"ELEMENT_SET_NO":999,"REV_AT_EPOCH":20800,"BSTAR":-3.808974e-6,"MEAN_MOTION_DOT":-3.49e-6,"MEAN_MOTION_DDOT":0},{"OBJECT_NAME":"STARLINK-3209","OBJECT_ID":"2021-115AE","EPOCH":"2025-09-08T06:02:40.630560","MEAN_MOTION":15.0884049,"ECCENTRICITY":0.00012431,"INCLINATION":53.2161,"RA_OF_ASC_NODE":238.1279,"ARG_OF_PERICENTER":82.3079,"MEAN_ANOMALY":277.8054,"EPHEMERIS_TYPE":0,"CLASSIFICATION_TYPE":"U","NORAD_CAT_ID":49752,"ELEMENT_SET_NO":999,"REV_AT_EPOCH":20813,"BSTAR":0.00010950917,"MEAN_MOTION_DOT":1.455e-5,"MEAN_MOTION_DDOT":0},{"OBJECT_NAME":"STARLINK-3200","OBJECT_ID":"2021-115AF","EPOCH":"2025-09-08T05:33:28.706400","MEAN_MOTION":15.08834225,"ECCENTRICITY":0.00013675,"INCLINATION":53.2165,"RA_OF_ASC_NODE":248.209,"ARG_OF_PERICENTER":95.0908,"MEAN_ANOMALY":265.0241,"EPHEMERIS_TYPE":0,"CLASSIFICATION_TYPE":"U","NORAD_CAT_ID":49753,"ELEMENT_SET_NO":999,"REV_AT_EPOCH":20799,"BSTAR":-9.9302923e-5,"MEAN_MOTION_DOT":-1.868e-5,"MEAN_MOTION_DDOT":0},{"OBJECT_NAME":"STARLINK-3193","OBJECT_ID":"2021-115AG","EPOCH":"2025-09-08T06:06:36.582912","MEAN_MOTION":15.08831452,"ECCENTRICITY":0.00014371,"INCLINATION":53.2164,"RA_OF_ASC_NODE":238.2095,"ARG_OF_PERICENTER":90.8087,"MEAN_ANOMALY":269.307,"EPHEMERIS_TYPE":0,"CLASSIFICATION_TYPE":"U","NORAD_CAT_ID":49754,"ELEMENT_SET_NO":999,"REV_AT_EPOCH":20813,"BSTAR":-3.4799296e-5,"MEAN_MOTION_DOT":-8.42e-6,"MEAN_MOTION_DDOT":0},{"OBJECT_NAME":"STARLINK-3210","OBJECT_ID":"2021-115AH","EPOCH":"2025-09-08T05:50:44.982816","MEAN_MOTION":15.08840223,"ECCENTRICITY":0.00013198,"INCLINATION":53.2167,"RA_OF_ASC_NODE":248.2036,"ARG_OF_PERICENTER":91.3607,"MEAN_ANOMALY":268.7536,"EPHEMERIS_TYPE":0,"CLASSIFICATION_TYPE":"U","NORAD_CAT_ID":49755,"ELEMENT_SET_NO":999,"REV_AT_EPOCH":20799,"BSTAR":2.2070069e-5,"MEAN_MOTION_DOT":6.3e-7,"MEAN_MOTION_DDOT":0},{"OBJECT_NAME":"STARLINK-3207","OBJECT_ID":"2021-115AJ","EPOCH":"2025-09-08T06:17:11.875200","MEAN_MOTION":15.08824584,"ECCENTRICITY":0.00013409,"INCLINATION":53.2168,"RA_OF_ASC_NODE":238.0737,"ARG_OF_PERICENTER":87.4275,"MEAN_ANOMALY":272.6871,"EPHEMERIS_TYPE":0,"CLASSIFICATION_TYPE":"U","NORAD_CAT_ID":49756,"ELEMENT_SET_NO":999,"REV_AT_EPOCH":20813,"BSTAR":-7.7783565e-5,"MEAN_MOTION_DOT":-1.525e-5,"MEAN_MOTION_DDOT":0},{"OBJECT_NAME":"STARLINK-3197","OBJECT_ID":"2021-115AK","EPOCH":"2025-09-08T06:07:57.805824","MEAN_MOTION":15.08836707,"ECCENTRICITY":0.00013746,"INCLINATION":53.2161,"RA_OF_ASC_NODE":238.111,"ARG_OF_PERICENTER":89.7033,"MEAN_ANOMALY":270.4117,"EPHEMERIS_TYPE":0,"CLASSIFICATION_TYPE":"U","NORAD_CAT_ID":49757,"ELEMENT_SET_NO":999,"REV_AT_EPOCH":20813,"BSTAR":9.594955e-6,"MEAN_MOTION_DOT":-1.35e-6,"MEAN_MOTION_DDOT":0},{"OBJECT_NAME":"STARLINK-3194","OBJECT_ID":"2021-115AL","EPOCH":"2025-09-08T06:27:47.691072","MEAN_MOTION":15.08825583,"ECCENTRICITY":0.00013427,"INCLINATION":53.2158,"RA_OF_ASC_NODE":238.0401,"ARG_OF_PERICENTER":89.7039,"MEAN_ANOMALY":270.4107,"EPHEMERIS_TYPE":0,"CLASSIFICATION_TYPE":"U","NORAD_CAT_ID":49758,"ELEMENT_SET_NO":999,"REV_AT_EPOCH":20813,"BSTAR":-7.9042198e-5,"MEAN_MOTION_DOT":-1.545e-5,"MEAN_MOTION_DDOT":0},{"OBJECT_NAME":"STARLINK-3204","OBJECT_ID":"2021-115AM","EPOCH":"2025-09-08T06:11:53.117952","MEAN_MOTION":15.08833713,"ECCENTRICITY":0.00013261,"INCLINATION":53.2155,"RA_OF_ASC_NODE":238.0884,"ARG_OF_PERICENTER":84.7222,"MEAN_ANOMALY":275.3921,"EPHEMERIS_TYPE":0,"CLASSIFICATION_TYPE":"U","NORAD_CAT_ID":49759,"ELEMENT_SET_NO":999,"REV_AT_EPOCH":20813,"BSTAR":2.438996e-6,"MEAN_MOTION_DOT":-2.49e-6,"MEAN_MOTION_DDOT":0},{"OBJECT_NAME":"STARLINK-3199","OBJECT_ID":"2021-115AN","EPOCH":"2025-09-08T05:02:59.630496","MEAN_MOTION":15.08841224,"ECCENTRICITY":0.00012167,"INCLINATION":53.2164,"RA_OF_ASC_NODE":238.3035,"ARG_OF_PERICENTER":95.7437,"MEAN_ANOMALY":264.3694,"EPHEMERIS_TYPE":0,"CLASSIFICATION_TYPE":"U","NORAD_CAT_ID":49760,"ELEMENT_SET_NO":999,"REV_AT_EPOCH":20813,"BSTAR":-3.8642572e-5,"MEAN_MOTION_DOT":-9.03e-6,"MEAN_MOTION_DDOT":0},{"OBJECT_NAME":"STARLINK-3203","OBJECT_ID":"2021-115AP","EPOCH":"2025-09-08T06:22:29.423712","MEAN_MOTION":15.0882841,"ECCENTRICITY":0.00013258,"INCLINATION":53.2164,"RA_OF_ASC_NODE":238.0566,"ARG_OF_PERICENTER":90.2224,"MEAN_ANOMALY":269.892,"EPHEMERIS_TYPE":0,"CLASSIFICATION_TYPE":"U","NORAD_CAT_ID":49761,"ELEMENT_SET_NO":999,"REV_AT_EPOCH":20813,"BSTAR":-5.979799e-5,"MEAN_MOTION_DOT":-1.239e-5,"MEAN_MOTION_DDOT":0},{"OBJECT_NAME":"STARLINK-3195","OBJECT_ID":"2021-115AQ","EPOCH":"2025-09-08T05:13:36.044256","MEAN_MOTION":15.08832194,"ECCENTRICITY":0.00013418,"INCLINATION":53.2164,"RA_OF_ASC_NODE":238.2683,"ARG_OF_PERICENTER":90.0764,"MEAN_ANOMALY":270.0382,"EPHEMERIS_TYPE":0,"CLASSIFICATION_TYPE":"U","NORAD_CAT_ID":49762,"ELEMENT_SET_NO":999,"REV_AT_EPOCH":20813,"BSTAR":-1.6796156e-5,"MEAN_MOTION_DOT":-5.55e-6,"MEAN_MOTION_DDOT":0},{"OBJECT_NAME":"STARLINK-3198","OBJECT_ID":"2021-115AR","EPOCH":"2025-09-08T04:57:41.998176","MEAN_MOTION":15.08833626,"ECCENTRICITY":0.00013572,"INCLINATION":53.2171,"RA_OF_ASC_NODE":238.3197,"ARG_OF_PERICENTER":90.571,"MEAN_ANOMALY":269.5437,"EPHEMERIS_TYPE":0,"CLASSIFICATION_TYPE":"U","NORAD_CAT_ID":49763,"ELEMENT_SET_NO":999,"REV_AT_EPOCH":20813,"BSTAR":-6.11055e-6,"MEAN_MOTION_DOT":-3.85e-6,"MEAN_MOTION_DDOT":0},{"OBJECT_NAME":"STARLINK-3227","OBJECT_ID":"2021-115AT","EPOCH":"2025-09-08T05:09:40.795200","MEAN_MOTION":15.08833138,"ECCENTRICITY":9.948e-5,"INCLINATION":53.2167,"RA_OF_ASC_NODE":238.2932,"ARG_OF_PERICENTER":91.6556,"MEAN_ANOMALY":268.4551,"EPHEMERIS_TYPE":0,"CLASSIFICATION_TYPE":"U","NORAD_CAT_ID":49765,"ELEMENT_SET_NO":999,"REV_AT_EPOCH":20813,"BSTAR":-5.4002767e-5,"MEAN_MOTION_DOT":-1.147e-5,"MEAN_MOTION_DDOT":0},{"OBJECT_NAME":"STARLINK-3190","OBJECT_ID":"2021-115AU","EPOCH":"2025-09-08T05:30:52.490016","MEAN_MOTION":15.08850352,"ECCENTRICITY":0.00016449,"INCLINATION":53.2166,"RA_OF_ASC_NODE":238.226,"ARG_OF_PERICENTER":78.685,"MEAN_ANOMALY":281.4327,"EPHEMERIS_TYPE":0,"CLASSIFICATION_TYPE":"U","NORAD_CAT_ID":49766,"ELEMENT_SET_NO":999,"REV_AT_EPOCH":20813,"BSTAR":0.00012639333,"MEAN_MOTION_DOT":1.725e-5,"MEAN_MOTION_DDOT":0}]
